STARLINK-31436          
1 59019U 24036X   26068.33634908 -.00000555  00000+0 -66329-5 0  9994
2 59019  53.1604  80.1548 0001238 101.6969 258.4171 15.30185538115269
TOMORROW-S4             
1 62386U 24247K   26068.53305366  .00012677  00000+0  46927-3 0  9990
2 62386  44.9818 117.9996 0004434 210.4078 149.6548 15.27717249 67702
